CCSDS_OMM_VERS = 2.0
CREATION_DATE  = 
ORIGINATOR     = 

OBJECT_NAME    = CYGNUS NG-23
OBJECT_ID      = 2025-208A
CENTER_NAME    = EARTH
REF_FRAME      = TEME
TIME_SYSTEM    = UTC
MEAN_ELEMENT_THEORY = SGP/SGP4

EPOCH          = 2026-01-04T12:00:38.654496
MEAN_MOTION    = 15.49089728
ECCENTRICITY   = .00075696
INCLINATION    = 51.6325
RA_OF_ASC_NODE = 29.7776
ARG_OF_PERICENTER = 339.7319
MEAN_ANOMALY   = 20.3368

EPHEMERIS_TYPE = 0
CLASSIFICATION_TYPE = U
NORAD_CAT_ID   = 65616
ELEMENT_SET_NO = 999
REV_AT_EPOCH   = 22
BSTAR          = .19539912E-3
MEAN_MOTION_DOT = .10369E-3
MEAN_MOTION_DDOT = 0

CCSDS_OMM_VERS = 2.0
CREATION_DATE  = 
ORIGINATOR     = 

OBJECT_NAME    = DRAGONFLY
OBJECT_ID      = 1998-067XH
CENTER_NAME    = EARTH
REF_FRAME      = TEME
TIME_SYSTEM    = UTC
MEAN_ELEMENT_THEORY = SGP/SGP4

EPOCH          = 2026-01-04T07:24:41.080320
MEAN_MOTION    = 15.82138824
ECCENTRICITY   = .0008663
INCLINATION    = 51.6225
RA_OF_ASC_NODE = 19.4510
ARG_OF_PERICENTER = 47.6135
MEAN_ANOMALY   = 312.5600

EPHEMERIS_TYPE = 0
CLASSIFICATION_TYPE = U
NORAD_CAT_ID   = 65729
ELEMENT_SET_NO = 999
REV_AT_EPOCH   = 1672
BSTAR          = .14452E-2
MEAN_MOTION_DOT = .314171E-2
MEAN_MOTION_DDOT = 0

CCSDS_OMM_VERS = 2.0
CREATION_DATE  = 
ORIGINATOR     = 

OBJECT_NAME    = 1998-067XK
OBJECT_ID      = 1998-067XK
CENTER_NAME    = EARTH
REF_FRAME      = TEME
TIME_SYSTEM    = UTC
MEAN_ELEMENT_THEORY = SGP/SGP4

EPOCH          = 2026-01-04T07:04:13.363104
MEAN_MOTION    = 15.71025189
ECCENTRICITY   = .0005326
INCLINATION    = 51.6285
RA_OF_ASC_NODE = 22.4025
ARG_OF_PERICENTER = 22.3820
MEAN_ANOMALY   = 337.7409

EPHEMERIS_TYPE = 0
CLASSIFICATION_TYPE = U
NORAD_CAT_ID   = 65731
ELEMENT_SET_NO = 999
REV_AT_EPOCH   = 1668
BSTAR          = .10273E-2
MEAN_MOTION_DOT = .133296E-2
MEAN_MOTION_DDOT = 0

CCSDS_OMM_VERS = 2.0
CREATION_DATE  = 
ORIGINATOR     = 

OBJECT_NAME    = RSP-03
OBJECT_ID      = 1998-067XL
CENTER_NAME    = EARTH
REF_FRAME      = TEME
TIME_SYSTEM    = UTC
MEAN_ELEMENT_THEORY = SGP/SGP4

EPOCH          = 2026-01-04T10:28:43.246560
MEAN_MOTION    = 15.75963547
ECCENTRICITY   = .00063791
INCLINATION    = 51.6255
RA_OF_ASC_NODE = 20.3282
ARG_OF_PERICENTER = 30.2800
MEAN_ANOMALY   = 329.8567

EPHEMERIS_TYPE = 0
CLASSIFICATION_TYPE = U
NORAD_CAT_ID   = 65732
ELEMENT_SET_NO = 999
REV_AT_EPOCH   = 1673
BSTAR          = .12646311E-2
MEAN_MOTION_DOT = .204899E-2
MEAN_MOTION_DDOT = 0

CCSDS_OMM_VERS = 2.0
CREATION_DATE  = 
ORIGINATOR     = 

OBJECT_NAME    = GHS-01
OBJECT_ID      = 1998-067XM
CENTER_NAME    = EARTH
REF_FRAME      = TEME
TIME_SYSTEM    = UTC
MEAN_ELEMENT_THEORY = SGP/SGP4

EPOCH          = 2026-01-04T06:16:47.959680
MEAN_MOTION    = 15.88983030
ECCENTRICITY   = .000952
INCLINATION    = 51.6250
RA_OF_ASC_NODE = 18.3901
ARG_OF_PERICENTER = 51.8673
MEAN_ANOMALY   = 308.3189

EPHEMERIS_TYPE = 0
CLASSIFICATION_TYPE = U
NORAD_CAT_ID   = 65733
ELEMENT_SET_NO = 999
REV_AT_EPOCH   = 1674
BSTAR          = .15761E-2
MEAN_MOTION_DOT = .45829E-2
MEAN_MOTION_DDOT = .89113E-4

CCSDS_OMM_VERS = 2.0
CREATION_DATE  = 
ORIGINATOR     = 

OBJECT_NAME    = YOTSUBA-KULOVER
OBJECT_ID      = 1998-067XN
CENTER_NAME    = EARTH
REF_FRAME      = TEME
TIME_SYSTEM    = UTC
MEAN_ELEMENT_THEORY = SGP/SGP4

EPOCH          = 2026-01-04T10:31:03.086688
MEAN_MOTION    = 15.63114387
ECCENTRICITY   = .00036144
INCLINATION    = 51.6290
RA_OF_ASC_NODE = 25.6160
ARG_OF_PERICENTER = 53.1676
MEAN_ANOMALY   = 306.9649

EPHEMERIS_TYPE = 0
CLASSIFICATION_TYPE = U
NORAD_CAT_ID   = 65941
ELEMENT_SET_NO = 999
REV_AT_EPOCH   = 1340
BSTAR          = .96586849E-3
MEAN_MOTION_DOT = .90302E-3
MEAN_MOTION_DDOT = 0

CCSDS_OMM_VERS = 2.0
CREATION_DATE  = 
ORIGINATOR     = 

OBJECT_NAME    = BOTAN
OBJECT_ID      = 1998-067XP
CENTER_NAME    = EARTH
REF_FRAME      = TEME
TIME_SYSTEM    = UTC
MEAN_ELEMENT_THEORY = SGP/SGP4

EPOCH          = 2026-01-04T07:36:04.811040
MEAN_MOTION    = 15.68701576
ECCENTRICITY   = .00044387
INCLINATION    = 51.6276
RA_OF_ASC_NODE = 24.7989
ARG_OF_PERICENTER = 42.1697
MEAN_ANOMALY   = 317.9640

EPHEMERIS_TYPE = 0
CLASSIFICATION_TYPE = U
NORAD_CAT_ID   = 65942
ELEMENT_SET_NO = 999
REV_AT_EPOCH   = 1340
BSTAR          = .12885973E-2
MEAN_MOTION_DOT = .152239E-2
MEAN_MOTION_DDOT = 0

CCSDS_OMM_VERS = 2.0
CREATION_DATE  = 
ORIGINATOR     = 

OBJECT_NAME    = E-KAGAKU-1
OBJECT_ID      = 1998-067XQ
CENTER_NAME    = EARTH
REF_FRAME      = TEME
TIME_SYSTEM    = UTC
MEAN_ELEMENT_THEORY = SGP/SGP4

EPOCH          = 2026-01-04T10:30:55.001376
MEAN_MOTION    = 15.63131105
ECCENTRICITY   = .00021958
INCLINATION    = 51.6302
RA_OF_ASC_NODE = 25.6206
ARG_OF_PERICENTER = 46.6951
MEAN_ANOMALY   = 313.4227

EPHEMERIS_TYPE = 0
CLASSIFICATION_TYPE = U
NORAD_CAT_ID   = 65943
ELEMENT_SET_NO = 999
REV_AT_EPOCH   = 1340
BSTAR          = .93835626E-3
MEAN_MOTION_DOT = .87731E-3
MEAN_MOTION_DDOT = 0

CCSDS_OMM_VERS = 2.0
CREATION_DATE  = 
ORIGINATOR     = 

OBJECT_NAME    = HRC MONOBLOCK CAMERA
OBJECT_ID      = 1998-067XR
CENTER_NAME    = EARTH
REF_FRAME      = TEME
TIME_SYSTEM    = UTC
MEAN_ELEMENT_THEORY = SGP/SGP4

EPOCH          = 2026-01-04T09:38:51.576576
MEAN_MOTION    = 15.55907384
ECCENTRICITY   = .00014258
INCLINATION    = 51.6308
RA_OF_ASC_NODE = 28.3723
ARG_OF_PERICENTER = 307.8103
MEAN_ANOMALY   = 52.2759

EPHEMERIS_TYPE = 0
CLASSIFICATION_TYPE = U
NORAD_CAT_ID   = 66052
ELEMENT_SET_NO = 999
REV_AT_EPOCH   = 1236
BSTAR          = .57326546E-3
MEAN_MOTION_DOT = .40227E-3
MEAN_MOTION_DDOT = 0

CCSDS_OMM_VERS = 2.0
CREATION_DATE  = 
ORIGINATOR     = 

OBJECT_NAME    = HTV-X1
OBJECT_ID      = 2025-241A
CENTER_NAME    = EARTH
REF_FRAME      = TEME
TIME_SYSTEM    = UTC
MEAN_ELEMENT_THEORY = SGP/SGP4

EPOCH          = 2026-01-04T12:00:38.654496
MEAN_MOTION    = 15.49089728
ECCENTRICITY   = .00075696
INCLINATION    = 51.6325
RA_OF_ASC_NODE = 29.7776
ARG_OF_PERICENTER = 339.7319
MEAN_ANOMALY   = 20.3368

EPHEMERIS_TYPE = 0
CLASSIFICATION_TYPE = U
NORAD_CAT_ID   = 66174
ELEMENT_SET_NO = 999
REV_AT_EPOCH   = 51
BSTAR          = .19539912E-3
MEAN_MOTION_DOT = .10369E-3
MEAN_MOTION_DDOT = 0

CCSDS_OMM_VERS = 2.0
CREATION_DATE  = 
ORIGINATOR     = 

OBJECT_NAME    = SHENZHOU-22
OBJECT_ID      = 2025-272A
CENTER_NAME    = EARTH
REF_FRAME      = TEME
TIME_SYSTEM    = UTC
MEAN_ELEMENT_THEORY = SGP/SGP4

EPOCH          = 2026-01-04T15:19:34.154400
MEAN_MOTION    = 15.60171241
ECCENTRICITY   = .00106698
INCLINATION    = 41.4652
RA_OF_ASC_NODE = 237.5900
ARG_OF_PERICENTER = 219.4125
MEAN_ANOMALY   = 140.5938

EPHEMERIS_TYPE = 0
CLASSIFICATION_TYPE = U
NORAD_CAT_ID   = 66645
ELEMENT_SET_NO = 999
REV_AT_EPOCH   = 26749
BSTAR          = .18793644E-3
MEAN_MOTION_DOT = .15464E-3
MEAN_MOTION_DDOT = 0

